GLOBALSTAR M069         
1 31573U 07020C   26169.48732133 -.00000060  00000+0  29785-3 0  9993
2 31573  52.0023 248.4472 0002314 150.6920 222.3322 12.23471381878963
GLOBALSTAR M072         
1 31574U 07020D   26169.50298350 -.00000099  00000+0 -20086-3 0  9993
2 31574  51.9933  96.7421 0001428 335.6985 196.1488 11.91658343875137
GLOBALSTAR M066         
1 32265U 07048C   26169.06997917 -.00000139  00000+0 -37741-3 0  9998
2 32265  51.9605  55.3781 0005510  45.9123 100.0309 12.30387558860335
GLOBALSTAR M079         
1 37188U 10054A   26169.58555819 -.00000097  00000+0  38014-4 0  9993
2 37188  52.0035 104.4123 0000751  27.5603 142.6884 12.62266106722720
GLOBALSTAR M074         
1 37189U 10054B   26169.53293686 -.00000101  00000+0  12807-4 0  9998
2 37189  52.0011 103.8370 0000565  52.2129 119.0464 12.62268399723328
GLOBALSTAR M076         
1 37190U 10054C   26169.55922840 -.00000102  00000+0  10261-4 0  9996
2 37190  52.0023 103.9603 0000760  45.0201 125.8107 12.62261834723046
GLOBALSTAR M077         
1 37191U 10054D   26169.51885365 -.00000093  00000+0 -27209-3 0  9992
2 37191  51.9919 175.9158 0002705 174.8445 358.2413 11.67547804721290
GLOBALSTAR M075         
1 37192U 10054E   26169.65134377 -.00000120  00000+0 -90478-4 0  9998
2 37192  51.9923 145.7340 0000208  23.5628 145.9953 12.62267354722121
GLOBALSTAR M073         
1 37193U 10054F   26169.41442709 -.00000074  00000+0  16790-3 0  9995
2 37193  52.0068  60.5565 0000956  50.6685 120.2585 12.62266509724086
GLOBALSTAR M083         
1 37739U 11033A   26169.02915856 -.00000090  00000+0  78530-4 0  9993
2 37739  51.9875   9.9569 0000939  68.0668  92.7460 12.62263147693054
GLOBALSTAR M088         
1 37740U 11033B   26169.60417398 -.00000077  00000+0  14871-3 0  9999
2 37740  52.0219 274.6389 0000673 129.3822 244.0192 12.62268803688679
GLOBALSTAR M091         
1 37741U 11033C   26169.45872727 -.00000082  00000+0  11911-3 0  9992
2 37741  51.9989 238.0451 0000273 155.7412 217.3661 12.62264027689444
GLOBALSTAR M085         
1 37742U 11033D   26169.47871316 -.00000110  00000+0 -34699-4 0  9990
2 37742  52.0097 189.2762 0000139 305.9811 218.0733 12.62264172689957
GLOBALSTAR M081         
1 37743U 11033E   26169.31360900 -.00000102  00000+0  99747-5 0  9992
2 37743  51.9932 192.2140 0000105  88.4525 284.6275 12.62265122690088
GLOBALSTAR M089         
1 37744U 11033F   26169.30148100 -.00000113  00000+0 -53442-4 0  9992
2 37744  51.9907 146.4083 0000377  82.6692  56.1559 12.62267245690928
GLOBALSTAR M084         
1 38040U 11080A   26169.52540497 -.00000097  00000+0  36902-4 0  9995
2 38040  52.0027  13.2082 0001095  87.8089 288.9928 12.62267565668934
GLOBALSTAR M080         
1 38041U 11080B   26169.05377178 -.00000087  00000+0  92188-4 0  9995
2 38041  52.0078  16.3625 0000390  69.5095  93.1203 12.62269456668998
GLOBALSTAR M082         
1 38042U 11080C   26169.43328054 -.00000084  00000+0  11304-3 0  9994
2 38042  52.0101 330.7087 0000521 100.2463 277.7860 12.62263723669754
GLOBALSTAR M092         
1 38043U 11080D   26169.44077711 -.00000087  00000+0  91045-4 0  9991
2 38043  52.0095  61.0822 0000724  65.0089 106.1365 12.62267027668200
GLOBALSTAR M090         
1 38044U 11080E   26169.63220228 -.00000100  00000+0  21933-4 0  9991
2 38044  52.0140 324.0591 0000783  93.8978 347.5492 12.62269061669896
GLOBALSTAR M086         
1 38045U 11080F   26169.48548174 -.00000090  00000+0  78118-4 0  9993
2 38045  51.9915 324.4335 0001692  69.9314 325.5449 12.62286762669821
GLOBALSTAR M097         
1 39072U 13005A   26169.50903315 -.00000089  00000+0  83590-4 0  9996
2 39072  52.0038 239.3137 0000265 127.5074 232.5817 12.62247265617074
GLOBALSTAR M093         
1 39073U 13005B   26169.48222919 -.00000087  00000+0  93113-4 0  9998
2 39073  52.0094 232.7418 0000182  85.7273 274.3615 12.62266006617029
GLOBALSTAR M094         
1 39074U 13005C   26169.40293710 -.00000125  00000+0 -11787-3 0  9998
2 39074  51.9930 147.0968 0000443   6.7292 353.3580 12.62268543618623
GLOBALSTAR M096         
1 39075U 13005D   26169.49560282 -.00000106  00000+0 -14039-4 0  9992
2 39075  52.0046 195.6185 0000058 317.1342  42.9521 12.62265690617558
GLOBALSTAR M078         
1 39076U 13005E   26169.62699617 -.00000139  00000+0 -19546-3 0  9996
2 39076  51.9885 279.2262 0000514 234.3680 125.7138 12.62257758616194
GLOBALSTAR M095         
1 39077U 13005F   26169.57455536 -.00000082  00000+0  12244-3 0  9995
2 39077  52.0090 276.9921 0000206 131.3200 228.7685 12.62263467616042
GLOBALSTAR M087         
1 52888U 22064A   26169.42942036 -.00000088  00000+0  85278-4 0  9999
2 52888  52.0011  58.6706 0000779  41.3620 318.7305 12.62269089191297
